{
    "links": {
        "self": "http://www.neowsapp.com/rest/v1/neo/3892197?api_key=iIulBulltgU6a56xZRHN4H3l9WmuAYTsLGpBGhQ2"
    },
    "id": "3892197",
    "neo_reference_id": "3892197",
    "name": "(2019 UF14)",
    "designation": "2019 UF14",
    "nasa_jpl_url": "http://ssd.jpl.nasa.gov/sbdb.cgi?sstr=3892197",
    "absolute_magnitude_h": 21.8,
    "estimated_diameter": {
        "kilometers": {
            "estimated_diameter_min": 0.1160259082,
            "estimated_diameter_max": 0.2594418179
        },
        "meters": {
            "estimated_diameter_min": 116.0259082094,
            "estimated_diameter_max": 259.4418179074
        },
        "miles": {
            "estimated_diameter_min": 0.0720951346,
            "estimated_diameter_max": 0.1612096218
        },
        "feet": {
            "estimated_diameter_min": 380.6624406898,
            "estimated_diameter_max": 851.1870938635
        }
    },
    "is_potentially_hazardous_asteroid": false,
    "close_approach_data": [
        {
            "close_approach_date": "2019-06-23",
            "close_approach_date_full": "2019-Jun-23 00:48",
            "epoch_date_close_approach": 1561250880000,
            "relative_velocity": {
                "kilometers_per_second": "15.9596702507",
                "kilometers_per_hour": "57454.8129026204",
                "miles_per_hour": "35700.1863838532"
            },
            "miss_distance": {
                "astronomical": "0.3772356235",
                "lunar": "146.7446575415",
                "kilometers": "56433645.763721945",
                "miles": "35066241.434355041"
            },
            "orbiting_body": "Earth"
        },
        {
            "close_approach_date": "2019-10-12",
            "close_approach_date_full": "2019-Oct-12 19:57",
            "epoch_date_close_approach": 1570910220000,
            "relative_velocity": {
                "kilometers_per_second": "14.2973463015",
                "kilometers_per_hour": "51470.4466855429",
                "miles_per_hour": "31981.7339419142"
            },
            "miss_distance": {
                "astronomical": "0.3733472284",
                "lunar": "145.2320718476",
                "kilometers": "55851950.139043508",
                "miles": "34704792.5337880904"
            },
            "orbiting_body": "Earth"
        },
        {
            "close_approach_date": "2022-10-17",
            "close_approach_date_full": "2022-Oct-17 20:04",
            "epoch_date_close_approach": 1666037040000,
            "relative_velocity": {
                "kilometers_per_second": "10.8157677704",
                "kilometers_per_hour": "38936.7639733738",
                "miles_per_hour": "24193.7909255666"
            },
            "miss_distance": {
                "astronomical": "0.0817174215",
                "lunar": "31.7880769635",
                "kilometers": "12224752.198292205",
                "miles": "7596108.779774229"
            },
            "orbiting_body": "Mars"
        }
    ],
    "orbital_data": {
        "orbit_id": "2",
        "orbit_determination_date": "2019-11-04 08:46:22",
        "first_observation_date": "2019-10-28",
        "last_observation_date": "2019-11-02",
        "data_arc_in_days": 5,
        "observations_used": 16,
        "orbit_uncertainty": "8",
        "minimum_orbit_intersection": ".109475",
        "jupiter_tisserand_invariant": "4.941",
        "epoch_osculation": "2458787.5",
        "eccentricity": ".3371016853092975",
        "semi_major_axis": "1.267055104372434",
        "inclination": "26.15789173203376",
        "ascending_node_longitude": "48.78317933880418",
        "orbital_period": "520.9447685329555",
        "perihelion_distance": ".8399286933087385",
        "perihelion_argument": "219.8664811389049",
        "aphelion_distance": "1.694181515436129",
        "perihelion_time": "2458666.106597893509",
        "mean_anomaly": "83.88917097949923",
        "mean_motion": ".6910521455351288",
        "equinox": "J2000",
        "orbit_class": {
            "orbit_class_type": "APO",
            "orbit_class_description": "Near-Earth asteroid orbits which cross the Earth’s orbit similar to that of 1862 Apollo",
            "orbit_class_range": "a (semi-major axis) > 1.0 AU; q (perihelion) < 1.017 AU"
        }
    },
    "is_sentry_object": false
}